[{"OBJECT_NAME":"SDA_1682","OBJECT_ID":"2025-230U","EPOCH":"2026-03-09T17:20:30.180192","MEAN_MOTION":13.84602017,"ECCENTRICITY":0.00025922,"INCLINATION":81.3027,"RA_OF_ASC_NODE":304.0041,"ARG_OF_PERICENTER":76.4793,"MEAN_ANOMALY":283.6653,"EPHEMERIS_TYPE":0,"CLASSIFICATION_TYPE":"U","NORAD_CAT_ID":65992,"ELEMENT_SET_NO":999,"REV_AT_EPOCH":2004,"BSTAR":-0.02644498,"MEAN_MOTION_DOT":-0.0002955,"MEAN_MOTION_DDOT":0},{"OBJECT_NAME":"SL-8 R\/B","OBJECT_ID":"1989-042B","EPOCH":"2026-03-09T22:16:58.092096","MEAN_MOTION":13.78617918,"ECCENTRICITY":0.00431149,"INCLINATION":82.9318,"RA_OF_ASC_NODE":86.7132,"ARG_OF_PERICENTER":126.1032,"MEAN_ANOMALY":234.413,"EPHEMERIS_TYPE":0,"CLASSIFICATION_TYPE":"U","NORAD_CAT_ID":20046,"ELEMENT_SET_NO":999,"REV_AT_EPOCH":84816,"BSTAR":0.00016191378,"MEAN_MOTION_DOT":1.81e-6,"MEAN_MOTION_DDOT":0}]
